[{"OBJECT_NAME":"SPAWAR-CAL-O","OBJECT_ID":"2018-099J","EPOCH":"2026-03-09T17:45:15.080832","MEAN_MOTION":15.31356755,"ECCENTRICITY":0.00072392,"INCLINATION":97.4452,"RA_OF_ASC_NODE":132.0993,"ARG_OF_PERICENTER":285.067,"MEAN_ANOMALY":74.977,"EPHEMERIS_TYPE":0,"CLASSIFICATION_TYPE":"U","NORAD_CAT_ID":43766,"ELEMENT_SET_NO":999,"REV_AT_EPOCH":39828,"BSTAR":0.00069663212,"MEAN_MOTION_DOT":0.00021069,"MEAN_MOTION_DDOT":0},{"OBJECT_NAME":"STARLINK-30426","OBJECT_ID":"2023-141J","EPOCH":"2026-03-09T21:10:59.562912","MEAN_MOTION":15.30189936,"ECCENTRICITY":0.00014368,"INCLINATION":53.1598,"RA_OF_ASC_NODE":283.2593,"ARG_OF_PERICENTER":117.1697,"MEAN_ANOMALY":242.9451,"EPHEMERIS_TYPE":0,"CLASSIFICATION_TYPE":"U","NORAD_CAT_ID":57848,"ELEMENT_SET_NO":999,"REV_AT_EPOCH":14035,"BSTAR":5.1744161e-5,"MEAN_MOTION_DOT":1.173e-5,"MEAN_MOTION_DDOT":0}]
